start=new Date('2022-08-15T00:00:00.000Z').valueOf();
sats=[{"TIME_SYSTEM":"UTC","RA_OF_ASC_NODE":"160.4398","FILE":"3536615","ARG_OF_PERICENTER":"61.4643","CLASSIFICATION_TYPE":"U","RCS_SIZE":"LARGE","LAUNCH_DATE":"2021-05-26","MEAN_MOTION_DOT":"-0.00000060","OBJECT_NAME":"STARLINK-2756","TLE_LINE2":"2 48683  53.0549 160.4398 0001793  61.4643 298.6526 15.06392753 68038","MEAN_ELEMENT_THEORY":"SGP4","PERIAPSIS":"545.994","SITE":"AFETR","OBJECT_TYPE":"PAYLOAD","EPHEMERIS_TYPE":"0","MEAN_MOTION":"15.06392753","DECAY_DATE":null,"REF_FRAME":"TEME","OBJECT_ID":"2021-044AX","PERIOD":"95.593","TLE_LINE1":"1 48683U 21044AX  22226.82262243 -.00000060  00000-0  14876-4 0  9990","APOAPSIS":"548.477","REV_AT_EPOCH":"6803","EPOCH":"2022-08-14T19:44:34.577952","MEAN_ANOMALY":"298.6526","ECCENTRICITY":"0.00017930","COUNTRY_CODE":"US","GP_ID":"210232483","MEAN_MOTION_DDOT":"0.0000000000000","BSTAR":"0.00001487600000","CENTER_NAME":"EARTH","INCLINATION":"53.0549","SEMIMAJOR_AXIS":"6925.371","ELEMENT_SET_NO":"999","NORAD_CAT_ID":"48683"},{"BSTAR":"0.00010384000000","MEAN_MOTION_DDOT":"0.0000000000000","NORAD_CAT_ID":"48684","INCLINATION":"53.0544","CENTER_NAME":"EARTH","ELEMENT_SET_NO":"999","SEMIMAJOR_AXIS":"6925.350","TLE_LINE1":"1 48684U 21044AY  22226.84523653  .00001265  00000-0  10384-3 0  9994","REF_FRAME":"TEME","PERIOD":"95.592","OBJECT_ID":"2021-044AY","COUNTRY_CODE":"US","ECCENTRICITY":"0.00015850","GP_ID":"210232733","REV_AT_EPOCH":"6782","APOAPSIS":"548.313","MEAN_ANOMALY":"293.4263","EPOCH":"2022-08-14T20:17:08.436192","OBJECT_TYPE":"PAYLOAD","SITE":"AFETR","MEAN_MOTION":"15.06399462","DECAY_DATE":null,"EPHEMERIS_TYPE":"0","CLASSIFICATION_TYPE":"U","ARG_OF_PERICENTER":"66.6892","FILE":"3536615","RA_OF_ASC_NODE":"175.6707","RCS_SIZE":"LARGE","LAUNCH_DATE":"2021-05-26","TIME_SYSTEM":"UTC","TLE_LINE2":"2 48684  53.0544 175.6707 0001585  66.6892 293.4263 15.06399462 67829","MEAN_ELEMENT_THEORY":"SGP4","OBJECT_NAME":"STARLINK-2741","MEAN_MOTION_DOT":"0.00001265","PERIAPSIS":"546.118"},{"BSTAR":"0.00006409600000","MEAN_MOTION_DDOT":"0.0000000000000","NORAD_CAT_ID":"48685","SEMIMAJOR_AXIS":"6925.355","ELEMENT_SET_NO":"999","INCLINATION":"53.0549","CENTER_NAME":"EARTH","TLE_LINE1":"1 48685U 21044AZ  22226.85949075  .00000673  00000-0  64096-4 0  9998","OBJECT_ID":"2021-044AZ","PERIOD":"95.592","REF_FRAME":"TEME","GP_ID":"210231484","ECCENTRICITY":"0.00014940","COUNTRY_CODE":"US","EPOCH":"2022-08-14T20:37:40.000800","MEAN_ANOMALY":"283.4062","APOAPSIS":"548.255","REV_AT_EPOCH":"6804","SITE":"AFETR","OBJECT_TYPE":"PAYLOAD","EPHEMERIS_TYPE":"0","MEAN_MOTION":"15.06397830","DECAY_DATE":null,"LAUNCH_DATE":"2021-05-26","RCS_SIZE":"LARGE","FILE":"3536615","ARG_OF_PERICENTER":"76.7094","RA_OF_ASC_NODE":"160.3113","CLASSIFICATION_TYPE":"U","TIME_SYSTEM":"UTC","PERIAPSIS":"546.186","MEAN_MOTION_DOT":"0.00000673","OBJECT_NAME":"STARLINK-2751","TLE_LINE2":"2 48685  53.0549 160.3113 0001494  76.7094 283.4062 15.06397830 68040","MEAN_ELEMENT_THEORY":"SGP4"},{"INCLINATION":"53.0535","CENTER_NAME":"EARTH","ELEMENT_SET_NO":"999","SEMIMAJOR_AXIS":"6925.360","NORAD_CAT_ID":"48686","MEAN_MOTION_DDOT":"0.0000000000000","BSTAR":"-0.00010614000000","APOAPSIS":"548.606","REV_AT_EPOCH":"6787","MEAN_ANOMALY":"293.6059","EPOCH":"2022-08-14T06:09:13.651200","COUNTRY_CODE":"US","ECCENTRICITY":"0.00019940","GP_ID":"210201096","REF_FRAME":"TEME","PERIOD":"95.592","OBJECT_ID":"2021-044BA","TLE_LINE1":"1 48686U 21044BA  22226.25640800 -.00001862  00000-0 -10614-3 0  9996","MEAN_MOTION":"15.06396254","DECAY_DATE":null,"EPHEMERIS_TYPE":"0","OBJECT_TYPE":"PAYLOAD","SITE":"AFETR","TLE_LINE2":"2 48686  53.0535 168.2442 0001994  66.5140 293.6059 15.06396254 67870","MEAN_ELEMENT_THEORY":"SGP4","OBJECT_NAME":"STARLINK-2629","MEAN_MOTION_DOT":"-0.00001862","PERIAPSIS":"545.844","TIME_SYSTEM":"UTC","CLASSIFICATION_TYPE":"U","RA_OF_ASC_NODE":"168.2442","FILE":"3536350","ARG_OF_PERICENTER":"66.5140","RCS_SIZE":"LARGE","LAUNCH_DATE":"2021-05-26"},{"EPHEMERIS_TYPE":"0","MEAN_MOTION":"15.06402299","DECAY_DATE":null,"OBJECT_TYPE":"PAYLOAD","SITE":"AFETR","OBJECT_NAME":"STARLINK-2627","MEAN_MOTION_DOT":"0.00000058","TLE_LINE2":"2 48687  53.0530 158.0788 0001657  82.7867 277.3311 15.06402299 68012","MEAN_ELEMENT_THEORY":"SGP4","PERIAPSIS":"546.059","RA_OF_ASC_NODE":"158.0788","FILE":"3536350","ARG_OF_PERICENTER":"82.7867","CLASSIFICATION_TYPE":"U","LAUNCH_DATE":"2021-05-26","RCS_SIZE":"LARGE","TIME_SYSTEM":"UTC","NORAD_CAT_ID":"48687","CENTER_NAME":"EARTH","INCLINATION":"53.0530","SEMIMAJOR_AXIS":"6925.342","ELEMENT_SET_NO":"999","BSTAR":"0.00002282900000","MEAN_MOTION_DDOT":"0.0000000000000","ECCENTRICITY":"0.00016570","COUNTRY_CODE":"US","GP_ID":"210201347","APOAPSIS":"548.354","REV_AT_EPOCH":"6801","EPOCH":"2022-08-14T05:33:20.643552","MEAN_ANOMALY":"277.3311","TLE_LINE1":"1 48687U 21044BB  22226.23148893  .00000058  00000-0  22829-4 0  9996","REF_FRAME":"TEME","OBJECT_ID":"2021-044BB","PERIOD":"95.592"},{"GP_ID":"210232233","ECCENTRICITY":"0.00015000","COUNTRY_CODE":"US","EPOCH":"2022-08-14T19:58:30.382176","MEAN_ANOMALY":"286.1473","APOAPSIS":"548.259","REV_AT_EPOCH":"6810","TLE_LINE1":"1 48688U 21044BC  22226.83229609  .00002083  00000-0  15867-3 0  9991","OBJECT_ID":"2021-044BC","PERIOD":"95.592","REF_FRAME":"TEME","NORAD_CAT_ID":"48688","SEMIMAJOR_AXIS":"6925.355","ELEMENT_SET_NO":"999","CENTER_NAME":"EARTH","INCLINATION":"53.0558","BSTAR":"0.00015867000000","MEAN_MOTION_DDOT":"0.0000000000000","PERIAPSIS":"546.181","MEAN_MOTION_DOT":"0.00002083","OBJECT_NAME":"STARLINK-2742","TLE_LINE2":"2 48688  53.0558 155.3779 0001500  73.9681 286.1473 15.06397801 68105","MEAN_ELEMENT_THEORY":"SGP4","LAUNCH_DATE":"2021-05-26","RCS_SIZE":"LARGE","FILE":"3536615","ARG_OF_PERICENTER":"73.9681","RA_OF_ASC_NODE":"155.3779","CLASSIFICATION_TYPE":"U","TIME_SYSTEM":"UTC","EPHEMERIS_TYPE":"0","DECAY_DATE":null,"MEAN_MOTION":"15.06397801","OBJECT_TYPE":"PAYLOAD","SITE":"AFETR"},{"PERIAPSIS":"546.089","MEAN_ELEMENT_THEORY":"SGP4","TLE_LINE2":"2 48689  53.0550 162.7131 0001678  68.4015 291.7153 15.06387768 67958","OBJECT_NAME":"STARLINK-2617","MEAN_MOTION_DOT":"-0.00001860","TIME_SYSTEM":"UTC","LAUNCH_DATE":"2021-05-26","RCS_SIZE":"LARGE","CLASSIFICATION_TYPE":"U","FILE":"3536350","RA_OF_ASC_NODE":"162.7131","ARG_OF_PERICENTER":"68.4015","DECAY_DATE":null,"MEAN_MOTION":"15.06387768","EPHEMERIS_TYPE":"0","OBJECT_TYPE":"PAYLOAD","SITE":"AFETR","MEAN_ANOMALY":"291.7153","EPOCH":"2022-08-14T07:21:30.151008","APOAPSIS":"548.413","REV_AT_EPOCH":"6795","GP_ID":"210200345","COUNTRY_CODE":"US","ECCENTRICITY":"0.00016780","PERIOD":"95.593","OBJECT_ID":"2021-044BD","REF_FRAME":"TEME","TLE_LINE1":"1 48689U 21044BD  22226.30659897 -.00001860  00000-0 -10602-3 0  9996","ELEMENT_SET_NO":"999","SEMIMAJOR_AXIS":"6925.386","CENTER_NAME":"EARTH","INCLINATION":"53.0550","NORAD_CAT_ID":"48689","MEAN_MOTION_DDOT":"0.0000000000000","BSTAR":"-0.00010602000000"},{"TIME_SYSTEM":"UTC","FILE":"3536615","RA_OF_ASC_NODE":"170.3301","ARG_OF_PERICENTER":"74.2378","CLASSIFICATION_TYPE":"U","LAUNCH_DATE":"2021-05-26","RCS_SIZE":"LARGE","MEAN_MOTION_DOT":"-0.00000034","OBJECT_NAME":"STARLINK-2740","MEAN_ELEMENT_THEORY":"SGP4","TLE_LINE2":"2 48690  53.0543 170.3301 0001412  74.2378 285.8767 15.06403114 67891","PERIAPSIS":"546.226","SITE":"AFETR","OBJECT_TYPE":"PAYLOAD","EPHEMERIS_TYPE":"0","DECAY_DATE":null,"MEAN_MOTION":"15.06403114","REF_FRAME":"TEME","OBJECT_ID":"2021-044BE","PERIOD":"95.592","TLE_LINE1":"1 48690U 21044BE  22226.84381015 -.00000034  00000-0  16619-4 0  9997","REV_AT_EPOCH":"6789","APOAPSIS":"548.182","EPOCH":"2022-08-14T20:15:05.196960","MEAN_ANOMALY":"285.8767","ECCENTRICITY":"0.00014120","COUNTRY_CODE":"US","GP_ID":"210231234","MEAN_MOTION_DDOT":"0.0000000000000","BSTAR":"0.00001661900000","INCLINATION":"53.0543","CENTER_NAME":"EARTH","SEMIMAJOR_AXIS":"6925.339","ELEMENT_SET_NO":"999","NORAD_CAT_ID":"48690"},{"MEAN_MOTION_DOT":"-0.00000461","OBJECT_NAME":"STARLINK-2750","TLE_LINE2":"2 48691  53.0543 167.8353 0001602  68.9481 291.1679 15.06394848 67880","MEAN_ELEMENT_THEORY":"SGP4","PERIAPSIS":"546.120","FILE":"3536350","ARG_OF_PERICENTER":"68.9481","RA_OF_ASC_NODE":"167.8353","CLASSIFICATION_TYPE":"U","LAUNCH_DATE":"2021-05-26","RCS_SIZE":"LARGE","TIME_SYSTEM":"UTC","EPHEMERIS_TYPE":"0","DECAY_DATE":null,"MEAN_MOTION":"15.06394848","OBJECT_TYPE":"PAYLOAD","SITE":"AFETR","ECCENTRICITY":"0.00016020","COUNTRY_CODE":"US","GP_ID":"210200848","REV_AT_EPOCH":"6788","APOAPSIS":"548.339","EPOCH":"2022-08-14T06:51:37.932480","MEAN_ANOMALY":"291.1679","TLE_LINE1":"1 48691U 21044BF  22226.28585570 -.00000461  00000-0 -12040-4 0  9997","REF_FRAME":"TEME","OBJECT_ID":"2021-044BF","PERIOD":"95.592","NORAD_CAT_ID":"48691","INCLINATION":"53.0543","CENTER_NAME":"EARTH","SEMIMAJOR_AXIS":"6925.364","ELEMENT_SET_NO":"999","BSTAR":"-0.00001204000000","MEAN_MOTION_DDOT":"0.0000000000000"},{"RA_OF_ASC_NODE":"168.3164","FILE":"3536350","ARG_OF_PERICENTER":"76.6794","CLASSIFICATION_TYPE":"U","RCS_SIZE":"LARGE","LAUNCH_DATE":"2021-05-26","TIME_SYSTEM":"UTC","MEAN_MOTION_DOT":"-0.00000366","OBJECT_NAME":"STARLINK-2752","TLE_LINE2":"2 48692  53.0544 168.3164 0001610  76.6794 283.4375 15.06395654 67872","MEAN_ELEMENT_THEORY":"SGP4","PERIAPSIS":"546.112","SITE":"AFETR","OBJECT_TYPE":"PAYLOAD","EPHEMERIS_TYPE":"0","MEAN_MOTION":"15.06395654","DECAY_DATE":null,"TLE_LINE1":"1 48692U 21044BG  22226.20478147 -.00000366  00000-0 -57010-5 0  9992","REF_FRAME":"TEME","OBJECT_ID":"2021-044BG","PERIOD":"95.592","ECCENTRICITY":"0.00016100","COUNTRY_CODE":"US","GP_ID":"210199596","REV_AT_EPOCH":"6787","APOAPSIS":"548.342","EPOCH":"2022-08-14T04:54:53.119008","MEAN_ANOMALY":"283.4375","BSTAR":"-0.00000570100000","MEAN_MOTION_DDOT":"0.0000000000000","NORAD_CAT_ID":"48692","INCLINATION":"53.0544","CENTER_NAME":"EARTH","SEMIMAJOR_AXIS":"6925.362","ELEMENT_SET_NO":"999"}];
